APRIZESAT 2             
1 28366U 04025A   26176.42560695  .00000195  00000+0  73839-4 0  9993
2 28366  98.1020 341.9399 0104666 224.7075 134.5642 14.38038989152821
SAUDICOMSAT 1           
1 28369U 04025D   26176.54074409  .00000364  00000+0  94571-4 0  9996
2 28369  98.5770 186.8975 0032104   0.3123 359.8088 14.55479843165349
SAUDICOMSAT 2           
1 28370U 04025E   26176.54390780  .00000227  00000+0  70373-4 0  9993
2 28370  98.6639 189.0266 0054435 233.6770 125.9391 14.49985369161314
APRIZESAT 1             
1 28372U 04025G   26176.49634704  .00000267  00000+0  77491-4 0  9998
2 28372  98.6302 187.4481 0045500 129.0332 231.4926 14.51781340163112
NANOSAT-1               
1 28493U 04049B   26176.34878906  .00000963  00000+0  13413-3 0  9992
2 28493  98.2285 313.2097 0002714 264.0863  96.0039 14.80174179156652
SAUDICOMSAT 7           
1 31119U 07012C   26176.50733837  .00000472  00000+0  93521-4 0  9999
2 31119  98.3780 150.8092 0055879 169.0785 191.1645 14.66117349 23652
SAUDICOMSAT 6           
1 31121U 07012E   26176.43668958  .00000499  00000+0  10526-3 0  9997
2 31121  98.4101 144.1067 0070599 301.7503  57.6831 14.62566958 21392
SAUDICOMSAT 5           
1 31124U 07012H   26176.46916253  .00000670  00000+0  12358-3 0  9993
2 31124  98.3492 151.5157 0048725  99.3104 261.3614 14.68166498 24816
SAUDICOMSAT 3           
1 31125U 07012J   26176.41533854  .00000833  00000+0  14377-3 0  9995
2 31125  98.3146 152.0084 0039764  27.8552 332.4771 14.70718774 26037
SAUDICOMSAT 4           
1 31127U 07012L   26176.49001189  .00000415  00000+0  86003-4 0  9998
2 31127  98.3986 149.2299 0062304 231.7665 127.7919 14.64519287 22502
APRIZESAT 4             
1 35684U 09041D   26176.14652464  .00000593  00000+0  77388-4 0  9997
2 35684  98.1409 251.6256 0042011 296.5870  63.1042 14.83888656912545
APRIZESAT 3             
1 35686U 09041F   26176.39137990  .00001200  00000+0  10807-3 0  9996
2 35686  98.2074 330.0086 0062608  41.0217 319.5687 14.96266472917606
S-NET D                 
1 43186U 18014G   26176.24683595  .00005175  00000+0  26707-3 0  9992
2 43186  97.5359  80.9868 0008069   4.5392 355.5913 15.16741116459986
S-NET B                 
1 43187U 18014H   26176.19247264  .00005433  00000+0  28043-3 0  9998
2 43187  97.5364  80.9199 0008519 358.9748   1.1466 15.16711520459973
S-NET A                 
1 43188U 18014J   26176.24566968  .00005290  00000+0  27287-3 0  9990
2 43188  97.5375  81.1828 0008430 359.7466   0.3761 15.16749546459985
S-NET C                 
1 43189U 18014K   26176.26236350  .00005480  00000+0  28286-3 0  9993
2 43189  97.5390  81.2757 0009515 350.3386   9.7663 15.16704186458533
SALSAT                  
1 46495U 20068K   26176.51768004  .00008873  00000+0  30898-3 0  9993
2 46495  97.8852 180.0899 0007802 272.5783  87.4563 15.29908924316636
OOV-CUBE (TUBSAT-30)    
1 60240U 24128F   26176.37277781  .00001619  00000+0  13378-3 0  9994
2 60240  61.9924 197.0293 0043615 135.5897 224.8705 15.02800403107349
LPNTSAT-001 (IOD-1)     
1 68408U 26065A   26176.18172846  .00002752  00000+0  13604-3 0  9996
2 68408  97.4014  56.5221 0015810 342.6313  17.4378 15.18575018 13477
