OBJECT_NAME,OBJECT_ID,EPOCH,MEAN_MOTION,ECCENTRICITY,INCLINATION,RA_OF_ASC_NODE,ARG_OF_PERICENTER,MEAN_ANOMALY,EPHEMERIS_TYPE,CLASSIFICATION_TYPE,NORAD_CAT_ID,ELEMENT_SET_NO,REV_AT_EPOCH,BSTAR,MEAN_MOTION_DOT,MEAN_MOTION_DDOT
APRIZESAT 2,2004-025A,2026-06-25T10:12:52.440480,14.38038989,.01046664,98.1020,341.9399,224.7075,134.5642,0,U,28366,999,15282,.73839144E-4,.195E-5,0
SAUDICOMSAT 1,2004-025D,2026-06-25T12:58:40.289376,14.55479843,.00321042,98.5770,186.8975,0.3123,359.8088,0,U,28369,999,16534,.94570622E-4,.364E-5,0
SAUDICOMSAT 2,2004-025E,2026-06-25T13:03:13.633920,14.49985369,.0054435,98.6639,189.0266,233.6770,125.9391,0,U,28370,999,16131,.70373282E-4,.227E-5,0
APRIZESAT 1,2004-025G,2026-06-25T11:54:44.384256,14.51781340,.00455002,98.6302,187.4481,129.0332,231.4926,0,U,28372,999,16311,.77490578E-4,.267E-5,0
NANOSAT-1,2004-049B,2026-06-25T08:22:15.374784,14.80174179,.00027149,98.2285,313.2097,264.0863,96.0039,0,U,28493,999,15665,.13413345E-3,.963E-5,0
SAUDICOMSAT 7,2007-012C,2026-06-25T12:10:34.035168,14.66117349,.00558794,98.3780,150.8092,169.0785,191.1645,0,U,31119,999,2365,.93520764E-4,.472E-5,0
SAUDICOMSAT 6,2007-012E,2026-06-25T10:28:49.979712,14.62566958,.00705998,98.4101,144.1067,301.7503,57.6831,0,U,31121,999,2139,.10525512E-3,.499E-5,0
SAUDICOMSAT 5,2007-012H,2026-06-25T11:15:35.642592,14.68166498,.00487253,98.3492,151.5157,99.3104,261.3614,0,U,31124,999,2481,.12358109E-3,.67E-5,0
SAUDICOMSAT 3,2007-012J,2026-06-25T09:58:05.249856,14.70718774,.0039764,98.3146,152.0084,27.8552,332.4771,0,U,31125,999,2603,.14376878E-3,.833E-5,0
SAUDICOMSAT 4,2007-012L,2026-06-25T11:45:37.027296,14.64519287,.00623042,98.3986,149.2299,231.7665,127.7919,0,U,31127,999,2250,.86002794E-4,.415E-5,0
APRIZESAT 4,2009-041D,2026-06-25T03:30:59.728896,14.83888656,.00420114,98.1409,251.6256,296.5870,63.1042,0,U,35684,999,91254,.77387811E-4,.593E-5,0
APRIZESAT 3,2009-041F,2026-06-25T09:23:35.223360,14.96266472,.00626085,98.2074,330.0086,41.0217,319.5687,0,U,35686,999,91760,.10806949E-3,.12E-4,0
S-NET D,2018-014G,2026-06-25T05:55:26.626080,15.16741116,.00080696,97.5359,80.9868,4.5392,355.5913,0,U,43186,999,45998,.26706912E-3,.5175E-4,0
S-NET B,2018-014H,2026-06-25T04:37:09.636096,15.16711520,.00085195,97.5364,80.9199,358.9748,1.1466,0,U,43187,999,45997,.28042929E-3,.5433E-4,0
S-NET A,2018-014J,2026-06-25T05:53:45.860352,15.16749546,.00084302,97.5375,81.1828,359.7466,0.3761,0,U,43188,999,45998,.27286711E-3,.529E-4,0
S-NET C,2018-014K,2026-06-25T06:17:48.206400,15.16704186,.00095153,97.5390,81.2757,350.3386,9.7663,0,U,43189,999,45853,.28285906E-3,.548E-4,0
SALSAT,2020-068K,2026-06-25T12:25:27.555456,15.29908924,.00078024,97.8852,180.0899,272.5783,87.4563,0,U,46495,999,31663,.3089847E-3,.8873E-4,0
OOV-CUBE (TUBSAT-30),2024-128F,2026-06-25T08:56:48.002784,15.02800403,.00436154,61.9924,197.0293,135.5897,224.8705,0,U,60240,999,10734,.13378427E-3,.1619E-4,0
LPNTSAT-001 (IOD-1),2026-065A,2026-06-25T04:21:41.338944,15.18575018,.001581,97.4014,56.5221,342.6313,17.4378,0,U,68408,999,1347,.13604097E-3,.2752E-4,0
